[
    {
        "Altitude(m)": 612513.9187136419,
        "Argument of Periapsis(deg)": 0.0,
        "Eccentricity": 0.0,
        "Inclination(deg)": 60.0,
        "Latitude(deg)": -28.135921532875482,
        "Longitude(deg)": 22.91317104776342,
        "Mean Anomaly(deg)": -147.27269999999996,
        "RAAN(deg)": 285.0,
        "Satellite Name": "Test1 1267",
        "Satellite Number": 1267,
        "Semi-Major Axis(m)": 6980739.136638005,
        "Time(s)": 0
    },
    {
        "Altitude(m)": 612708.2863295993,
        "Argument of Periapsis(deg)": 0.00010418945913296404,
        "Eccentricity": 0.0,
        "Inclination(deg)": 60.0,
        "Latitude(deg)": -28.647660035562712,
        "Longitude(deg)": 23.27040249445188,
        "Mean Anomaly(deg)": -146.65259385453817,
        "RAAN(deg)": 284.9995799508602,
        "Satellite Name": "Test1 1267",
        "Satellite Number": 1267,
        "Semi-Major Axis(m)": 6980739.136638005,
        "Time(s)": 10
    }
]